GORIZONT 1 [-]          
1 11158U 78118A   23019.89080902 -.00000180  00000+0  00000+0 0  9990
2 11158  11.0913 196.7576 3423478 293.1975  34.3696  1.00301426110449
GORIZONT 2 [-]          
1 11440U 79062A   23019.74559639 -.00000045  00000+0  00000+0 0  9995
2 11440   8.7786 299.3398 0003249 317.6439 202.3345  1.00306346125541
GORIZONT 3 [-]          
1 11648U 79105A   23019.79973689 -.00000255  00000+0  00000+0 0  9996
2 11648   8.9414 300.8094 0012193 219.7283 341.0124  1.00332910110006
GORIZONT 4 [-]          
1 11841U 80049A   23019.86716045 -.00000167  00000+0  00000+0 0  9991
2 11841  10.1023 306.7365 0001279 353.6520 258.4951  0.98630317221249
GORIZONT 5 [-]          
1 13092U 82020A   23017.62049111 -.00000202  00000+0  00000+0 0  9997
2 13092  11.1169 312.1051 0033524 217.2827 315.9180  0.98533806109318
GORIZONT 6 [-]          
1 13624U 82103A   23020.45595424  .00000143  00000+0  00000+0 0  9991
2 13624  10.0392 312.1438 0000503 321.4455 218.1744  1.00340860108476
GORIZONT 7 [-]          
1 14160U 83066A   23021.09023242 -.00000197  00000+0  00000+0 0  9991
2 14160  11.7304 321.6281 0010093 323.2023 209.1926  0.98349729142569
GORIZONT 8 [-]          
1 14532U 83118A   23021.60579428 -.00000181  00000+0  00000+0 0  9994
2 14532  11.9116 323.5006 0029616 153.3065  42.0452  0.98271585108328
GORIZONT 9 [-]          
1 14940U 84041A   23019.88683747  .00000056  00000+0  00000+0 0  9990
2 14940  11.1033 321.5148 0004273 219.8195 318.2047  1.00233269109544
GORIZONT 10 [-]         
1 15144U 84078A   23022.47740854  .00000097  00000+0  00000+0 0  9994
2 15144  11.1990 322.5169 0000276  85.1287  75.1418  1.00269442142159
GORIZONT 11 [-]         
1 15484U 85007A   23022.32857612 -.00000316  00000+0  00000+0 0  9994
2 15484  11.3878 324.5164 0002575 151.8185 255.9005  1.00323555140178
GORIZONT 12 [-]         
1 16769U 86044A   23020.95866598  .00000135  00000+0  00000+0 0  9991
2 16769  12.0362 329.9423 0001234 264.8900 271.3510  1.00251898134805
GORIZONT 13 [-]         
1 17083U 86090A   23022.44980789 -.00000087  00000+0  00000+0 0  9994
2 17083  13.9407 337.1725 0014080 342.9311 186.0758  0.96725943106657
GORIZONT 14 [-]         
1 17969U 87040A   23021.82983426 -.00000054  00000+0  00000+0 0  9999
2 17969  12.8418 328.5123 0030510 178.0720   6.9246  0.97657848107713
GORIZONT 15 [-]         
1 19017U 88028A   23020.72851073 -.00000159  00000+0  00000+0 0  9998
2 19017  14.2497 339.9726 0036706 160.3970 208.0984  0.97828489107323
GORIZONT 16 [-]         
1 19397U 88071A   23022.26633550 -.00000366  00000+0  00000+0 0  9996
2 19397  13.0957 338.6358 0014009  63.1413 300.5492  0.99980017125817
GORIZONT 17 [-]         
1 19765U 89004A   23022.45444140  .00000045  00000+0  00000+0 0  9991
2 19765  13.6599 342.0085 0022390 135.7705  33.7845  0.99064928123260
GORIZONT 18 [-]         
1 20107U 89052A   23020.93243667  .00000038  00000+0  00000+0 0  9990
2 20107  13.7129 343.2731 0034068 321.8184 224.5340  0.99396654122046
GORIZONT 19 [-]         
1 20263U 89081A   23022.33205786 -.00000291  00000+0  00000+0 0  9993
2 20263  13.4381 342.4314 0003506 216.3262 136.5587  1.00343286122043
GORIZONT 20 [-]         
1 20659U 90054A   23022.40152832 -.00000175  00000+0  00000+0 0  9996
2 20659  13.8900 345.2443 0006470 171.2166 192.8157  1.00226287119238
GORIZONT 21 [-]         
1 20923U 90094A   23021.22891184 -.00000278  00000+0  00000+0 0  9997
2 20923  13.9092 346.0203 0004142 211.4908 322.4776  1.00334763117979
GORIZONT 22 [-]         
1 20953U 90102A   23022.26738148 -.00000355  00000+0  00000+0 0  9991
2 20953  13.8688 346.3842 0002667  24.6399 336.4005  1.00221509117953
GORIZONT 23 [-]         
1 21533U 91046A   23020.72973104 -.00000247  00000+0  00000+0 0  9996
2 21533  14.6564 350.5715 0004226 316.2344  48.0570  0.98910751108435
GORIZONT 24 [-]         
1 21759U 91074A   23020.69686984 -.00000228  00000+0  00000+0 0  9999
2 21759  14.8228 352.4929 0017866 229.3647 316.2445  0.98445622112791
GORIZONT 25 [-]         
1 21922U 92017A   23022.27935632 -.00000283  00000+0  00000+0 0  9993
2 21922  14.3614 351.7833 0028570  85.2634 295.4832  0.99859817112538
GORIZONT 26 [-]         
1 22041U 92043A   23022.03035431  .00000058  00000+0  00000+0 0  9996
2 22041  14.5442 353.8110 0030962 239.7734 303.7211  0.99241695111169
GORIZONT 27 [-]         
1 22245U 92082A   23021.13799344  .00000075  00000+0  00000+0 0  9994
2 22245  14.4606 353.3805 0012165  11.6255 182.5827  1.00189766114692
GORIZONT 28 [-]         
1 22880U 93069A   23022.48948909 -.00000024  00000+0  00000+0 0  9992
2 22880  14.6242 357.2528 0033657 136.2088  57.7626  0.99647968106766
GORIZONT 29 [-]         
1 22907U 93072A   23022.30076564 -.00000295  00000+0  00000+0 0  9996
2 22907  14.5323 356.6972 0010235 348.0544 182.3381  1.00132806106764
GORIZONT 30 [-]         
1 23108U 94030A   23022.26903762 -.00000316  00000+0  00000+0 0  9993
2 23108  14.5505 357.5949 0001157 194.7414 163.8791  1.00236363105030
GORIZONT 31 [-]         
1 23775U 96005A   23020.02704255  .00000119  00000+0  00000+0 0  9995
2 23775  14.5038   3.8661 0018571 205.1566 324.7349  0.99886442 98614
GORIZONT 32 [-]         
1 23880U 96034A   23020.71785660 -.00000030  00000+0  00000+0 0  9992
2 23880  14.4570   4.3640 0008147 357.9293 189.2403  1.00217208 97586
GORIZONT 33 [-]         
1 26372U 00029A   23022.23818122 -.00000154  00000+0  00000+0 0  9996
2 26372  13.2421  15.6347 0002119  90.4339  84.1057  1.00291886 82967
